GLOBALSTAR M001 [-]     
1 25162U 98008A   23277.44237458 -.00000128  00000+0 -24287-3 0  9997
2 25162  52.0057 342.7937 0001618  38.0591 335.2912 12.38167830166809
GLOBALSTAR M004 [-]     
1 25163U 98008B   23276.84280905 -.00000074  00000+0  16358-3 0  9995
2 25163  51.9980 152.6948 0003241   3.4960  93.2246 12.63338829183124
GLOBALSTAR M002 [-]     
1 25164U 98008C   23277.48324662 -.00000081  00000+0 -92657-4 0  9992
2 25164  52.0047 359.0035 0001783  92.6966 267.4058 11.61495283111892
GLOBALSTAR M003 [-]     
1 25165U 98008D   23276.82050319  .00000022  00000+0  11868-2 0  9991
2 25165  51.9734  92.3536 0008621 118.8164 346.1656 12.11941422157847
GLOBALSTAR M014 [-]     
1 25306U 98023A   23277.06500344 -.00000056  00000+0  40178-3 0  9995
2 25306  51.9834 296.3551 0000700 308.9967  80.4231 11.65460398118627
GLOBALSTAR M006 [-]     
1 25307U 98023B   23276.94824147 -.00000062  00000+0  28611-3 0  9997
2 25307  51.9957 325.8681 0003756  73.4464 344.7471 11.58154116144841
GLOBALSTAR M015 [-]     
1 25308U 98023C   23277.48417385 -.00000006  00000+0  15379-2 0  9994
2 25308  51.9850  34.5148 0012912  53.9277  23.7198 11.48851208122992
GLOBALSTAR M008 [-]     
1 25309U 98023D   23277.32361799 -.00000037  00000+0  46502-3 0  9992
2 25309  51.9960 200.9292 0002358 319.1794 191.7407 12.36029070161251
